{
  "type": "FeatureCollection",
  "features": [
    {
      "type": "Feature",
      "properties": {
        "norad_id": 30505,
        "name": "FENGYUN 1C DEB",
        "group": "fengyun-1c-debris",
        "lat": -30.659446505362233,
        "lon": -104.20044025709218,
        "alt_km": 778.428589703618,
        "timestamp": "2025-12-27T07:26:25.498611+00:00",
        "meta_object_name": "FENGYUN 1C DEB",
        "meta_object_id": "1999-025AHT",
        "meta_epoch": "2025-12-26T17:33:46.205856",
        "meta_mean_motion": 14.22136081,
        "meta_eccentricity": 0.00643853,
        "meta_inclination": 98.9248,
        "meta_ra_of_asc_node": 80.5595,
        "meta_arg_of_pericenter": 202.4913,
        "meta_mean_anomaly": 289.6348,
        "meta_ephemeris_type": 0,
        "meta_classification_type": "U",
        "meta_norad_cat_id": 30505,
        "meta_element_set_no": 999,
        "meta_rev_at_epoch": 97122,
        "meta_bstar": 0.0017547382,
        "meta_mean_motion_dot": 3.926e-05,
        "meta_mean_motion_ddot": 0,
        "tle_line1": "1 30505U 99025AHT 25360.73178479  .00003926  00000+0  17547-2 0  9995",
        "tle_line2": "2 30505  98.9248  80.5595 0064385 202.4913 289.6348 14.22136081971223"
      },
      "geometry": {
        "type": "Point",
        "coordinates": [
          -104.20044025709218,
          -30.659446505362233
        ]
      }
    },
    {
      "type": "Feature",
      "properties": {
        "norad_id": 30506,
        "name": "FENGYUN 1C DEB",
        "group": "fengyun-1c-debris",
        "lat": -72.95126568506431,
        "lon": 155.78957362251307,
        "alt_km": 839.3943342217672,
        "timestamp": "2025-12-27T07:26:25.498621+00:00",
        "meta_object_name": "FENGYUN 1C DEB",
        "meta_object_id": "1999-025AHU",
        "meta_epoch": "2025-12-26T18:32:52.125792",
        "meta_mean_motion": 14.08666289,
        "meta_eccentricity": 0.00697585,
        "meta_inclination": 98.7571,
        "meta_ra_of_asc_node": 5.4424,
        "meta_arg_of_pericenter": 308.0792,
        "meta_mean_anomaly": 105.1374,
        "meta_ephemeris_type": 0,
        "meta_classification_type": "U",
        "meta_norad_cat_id": 30506,
        "meta_element_set_no": 999,
        "meta_rev_at_epoch": 97019,
        "meta_bstar": 0.00027769692,
        "meta_mean_motion_dot": 4.45e-06,
        "meta_mean_motion_ddot": 0,
        "tle_line1": "1 30506U 99025AHU 25360.77282553  .00000445  00000+0  27770-3 0  9992",
        "tle_line2": "2 30506  98.7571   5.4424 0069758 308.0792 105.1374 14.08666289970193"
      },
      "geometry": {
        "type": "Point",
        "coordinates": [
          155.78957362251307,
          -72.95126568506431
        ]
      }
    },
    {
      "type": "Feature",
      "properties": {
        "norad_id": 30507,
        "name": "FENGYUN 1C DEB",
        "group": "fengyun-1c-debris",
        "lat": -70.38848735535012,
        "lon": -140.55114167339352,
        "alt_km": 896.6123829809121,
        "timestamp": "2025-12-27T07:26:25.498631+00:00",
        "meta_object_name": "FENGYUN 1C DEB",
        "meta_object_id": "1999-025AHV",
        "meta_epoch": "2025-12-26T10:28:21.707040",
        "meta_mean_motion": 14.13235822,
        "meta_eccentricity": 0.0128341,
        "meta_inclination": 99.0125,
        "meta_ra_of_asc_node": 65.0194,
        "meta_arg_of_pericenter": 138.0093,
        "meta_mean_anomaly": 350.7581,
        "meta_ephemeris_type": 0,
        "meta_classification_type": "U",
        "meta_norad_cat_id": 30507,
        "meta_element_set_no": 999,
        "meta_rev_at_epoch": 96691,
        "meta_bstar": 0.0010894,
        "meta_mean_motion_dot": 2.163e-05,
        "meta_mean_motion_ddot": 0,
        "tle_line1": "1 30507U 99025AHV 25360.43636235  .00002163  00000+0  10894-2 0  9993",
        "tle_line2": "2 30507  99.0125  65.0194 0128341 138.0093 350.7581 14.13235822966912"
      },
      "geometry": {
        "type": "Point",
        "coordinates": [
          -140.55114167339352,
          -70.38848735535012
        ]
      }
    },
    {
      "type": "Feature",
      "properties": {
        "norad_id": 30509,
        "name": "FENGYUN 1C DEB",
        "group": "fengyun-1c-debris",
        "lat": 43.47776578480234,
        "lon": 60.364828409442325,
        "alt_km": 892.2907901766221,
        "timestamp": "2025-12-27T07:26:25.498642+00:00",
        "meta_object_name": "FENGYUN 1C DEB",
        "meta_object_id": "1999-025AHX",
        "meta_epoch": "2025-12-24T02:45:50.090976",
        "meta_mean_motion": 14.07725961,
        "meta_eccentricity": 0.01024574,
        "meta_inclination": 98.4648,
        "meta_ra_of_asc_node": 229.2516,
        "meta_arg_of_pericenter": 31.4768,
        "meta_mean_anomaly": 121.2979,
        "meta_ephemeris_type": 0,
        "meta_classification_type": "U",
        "meta_norad_cat_id": 30509,
        "meta_element_set_no": 999,
        "meta_rev_at_epoch": 95882,
        "meta_bstar": 0.0022392549,
        "meta_mean_motion_dot": 3.936e-05,
        "meta_mean_motion_ddot": 0,
        "tle_line1": "1 30509U 99025AHX 25358.11516309  .00003936  00000+0  22393-2 0  9992",
        "tle_line2": "2 30509  98.4648 229.2516 0102457  31.4768 121.2979 14.07725961958828"
      },
      "geometry": {
        "type": "Point",
        "coordinates": [
          60.364828409442325,
          43.47776578480234
        ]
      }
    },
    {
      "type": "Feature",
      "properties": {
        "norad_id": 30510,
        "name": "FENGYUN 1C DEB",
        "group": "fengyun-1c-debris",
        "lat": 78.33816597663906,
        "lon": -114.09103087948374,
        "alt_km": 792.0209040729906,
        "timestamp": "2025-12-27T07:26:25.498652+00:00",
        "meta_object_name": "FENGYUN 1C DEB",
        "meta_object_id": "1999-025AHY",
        "meta_epoch": "2025-12-26T14:35:34.185120",
        "meta_mean_motion": 14.12917396,
        "meta_eccentricity": 0.007858,
        "meta_inclination": 99.2449,
        "meta_ra_of_asc_node": 13.0806,
        "meta_arg_of_pericenter": 127.5961,
        "meta_mean_anomaly": 1.2752,
        "meta_ephemeris_type": 0,
        "meta_classification_type": "U",
        "meta_norad_cat_id": 30510,
        "meta_element_set_no": 999,
        "meta_rev_at_epoch": 96770,
        "meta_bstar": 0.0012701,
        "meta_mean_motion_dot": 2.389e-05,
        "meta_mean_motion_ddot": 0,
        "tle_line1": "1 30510U 99025AHY 25360.60803455  .00002389  00000+0  12701-2 0  9995",
        "tle_line2": "2 30510  99.2449  13.0806 0078580 127.5961   1.2752 14.12917396967704"
      },
      "geometry": {
        "type": "Point",
        "coordinates": [
          -114.09103087948374,
          78.33816597663906
        ]
      }
    },
    {
      "type": "Feature",
      "properties": {
        "norad_id": 30514,
        "name": "FENGYUN 1C DEB",
        "group": "fengyun-1c-debris",
        "lat": -71.17023591120446,
        "lon": 50.17701654497252,
        "alt_km": 852.5245560974781,
        "timestamp": "2025-12-27T07:26:25.498662+00:00",
        "meta_object_name": "FENGYUN 1C DEB",
        "meta_object_id": "1999-025AJC",
        "meta_epoch": "2025-12-26T23:24:34.323264",
        "meta_mean_motion": 14.34402799,
        "meta_eccentricity": 0.01740634,
        "meta_inclination": 98.412,
        "meta_ra_of_asc_node": 24.1333,
        "meta_arg_of_pericenter": 51.964,
        "meta_mean_anomaly": 309.7112,
        "meta_ephemeris_type": 0,
        "meta_classification_type": "U",
        "meta_norad_cat_id": 30514,
        "meta_element_set_no": 999,
        "meta_rev_at_epoch": 98429,
        "meta_bstar": 0.00058461869,
        "meta_mean_motion_dot": 1.905e-05,
        "meta_mean_motion_ddot": 0,
        "tle_line1": "1 30514U 99025AJC 25360.97539726  .00001905  00000+0  58462-3 0  9994",
        "tle_line2": "2 30514  98.4120  24.1333 0174063  51.9640 309.7112 14.34402799984299"
      },
      "geometry": {
        "type": "Point",
        "coordinates": [
          50.17701654497252,
          -71.17023591120446
        ]
      }
    },
    {
      "type": "Feature",
      "properties": {
        "norad_id": 30515,
        "name": "FENGYUN 1C DEB",
        "group": "fengyun-1c-debris",
        "lat": -0.5361052068821401,
        "lon": -124.20641666352125,
        "alt_km": 722.817509735778,
        "timestamp": "2025-12-27T07:26:25.498672+00:00",
        "meta_object_name": "FENGYUN 1C DEB",
        "meta_object_id": "1999-025AJD",
        "meta_epoch": "2025-12-26T08:47:47.397984",
        "meta_mean_motion": 13.63837992,
        "meta_eccentricity": 0.0496979,
        "meta_inclination": 98.509,
        "meta_ra_of_asc_node": 234.8835,
        "meta_arg_of_pericenter": 38.5841,
        "meta_mean_anomaly": 14.3797,
        "meta_ephemeris_type": 0,
        "meta_classification_type": "U",
        "meta_norad_cat_id": 30515,
        "meta_element_set_no": 999,
        "meta_rev_at_epoch": 93516,
        "meta_bstar": 0.00099366,
        "meta_mean_motion_dot": 1.797e-05,
        "meta_mean_motion_ddot": 0,
        "tle_line1": "1 30515U 99025AJD 25360.36652081  .00001797  00000+0  99366-3 0  9995",
        "tle_line2": "2 30515  98.5090 234.8835 0496979  38.5841  14.3797 13.63837992935169"
      },
      "geometry": {
        "type": "Point",
        "coordinates": [
          -124.20641666352125,
          -0.5361052068821401
        ]
      }
    }
  ]
}